OBJECT_NAME,OBJECT_ID,EPOCH,MEAN_MOTION,ECCENTRICITY,INCLINATION,RA_OF_ASC_NODE,ARG_OF_PERICENTER,MEAN_ANOMALY,EPHEMERIS_TYPE,CLASSIFICATION_TYPE,NORAD_CAT_ID,ELEMENT_SET_NO,REV_AT_EPOCH,BSTAR,MEAN_MOTION_DOT,MEAN_MOTION_DDOT
TIANMU-1 20,2023-208B,2026-06-17T21:53:37.265568,15.32773638,.00059652,97.4452,285.8515,330.8819,29.2089,0,U,58661,999,13753,.20563421E-3,.6431E-4,0
TIANMU-1 21,2023-208C,2026-06-17T21:35:15.832320,15.35087755,.000592,97.4513,288.5223,320.7968,39.2846,0,U,58662,999,13767,.23095091E-3,.7785E-4,0
TIANMU-1 22,2023-208D,2026-06-17T22:08:12.171840,15.31067020,.0003113,97.4506,285.1610,1.2284,358.8964,0,U,58663,999,13744,.21021069E-3,.6231E-4,0
TIANMU-1 15,2024-004A,2026-06-17T22:48:43.676064,15.27030089,.00066166,97.4667,355.1406,359.7836,0.3399,0,U,58700,999,13589,.17040644E-3,.4447E-4,0
TIANMU-1 16,2024-004B,2026-06-17T22:33:25.619040,15.26755084,.00057498,97.4614,354.3660,5.4575,354.6726,0,U,58701,999,13589,.17472655E-3,.4523E-4,0
TIANMU-1 17,2024-004C,2026-06-17T22:12:28.842912,15.26754084,.00054465,97.4641,354.8366,12.0424,348.0944,0,U,58702,999,13588,.17542493E-3,.4541E-4,0
TIANMU-1 18,2024-004D,2026-06-17T23:12:39.948192,15.27012063,.00039685,97.4659,355.1344,12.7135,347.4203,0,U,58703,999,13589,.16803429E-3,.438E-4,0
INSAT-3DS,2024-033A,2026-06-17T21:54:50.836032,1.00271290,.00010407,0.0445,109.0868,325.9647,241.9201,0,U,58990,999,4707,0,-.161E-5,0
METEOR-M2 4,2024-039A,2026-06-17T22:58:21.717984,14.22429630,.0007336,98.7010,128.2455,158.8228,201.3255,0,U,59051,999,11937,.24841012E-4,.12E-6,0
GOES 19,2024-119A,2026-06-17T21:09:54.794880,1.00270995,.00003622,0.0119,105.1045,74.7035,328.6096,0,U,60133,999,697,0,-.254E-5,0
MTG-S1,2025-143A,2026-06-17T21:30:22.664160,1.00270520,.00007884,0.6023,339.1581,17.4636,228.6383,0,U,64723,999,342,0,-.37E-6,0
METOP-SGA1,2025-172A,2026-06-16T03:40:47.624736,14.21509720,.0000902,98.6644,226.8998,93.8213,266.3067,0,U,65159,999,4364,.41999845E-4,.49E-6,0
FENGYUN 3H,2025-219A,2026-06-17T19:35:18.402144,14.19920549,.00015911,98.6768,109.5731,76.2688,283.8666,0,U,65815,999,3747,.37845176E-4,.37E-6,0
